COSMOS 2251 DEB         
1 35961U 93036AVB 17345.38099940  .00000796  00000-0  50942-3 0  9992
2 35961  73.9293 239.4794 0210024  43.7783 317.9783 13.94673379218403
